NORAD_CAT_ID,OBJECT_NAME,OBJECT_TYPE,EPOCH,MEAN_MOTION,ECCENTRICITY,INCLINATION,RA_OF_ASC_NODE,ARG_OF_PERICENTER,MEAN_ANOMALY,BSTAR,MEAN_MOTION_DOT,MEAN_MOTION_DDOT,TLE_LINE0,TLE_LINE1,TLE_LINE2,SEMIMAJOR_AXIS,PERIOD,APOGEE,PERIGEE,DECAYED
52649.0,STARLINK-3868,PAYLOAD,2024-05-16 07:02:56,15.08850949,0.0001066,53.218,352.5855,92.4388,267.6726,0.00079923,0.00012458,0.0,0 STARLINK-3868,1 52649U 22052BD  24137.29371527  .00012458  00000-0  79923-3 0  9993,2 52649  53.2180 352.5855 0001066  92.4388 267.6726 15.08850949111511,6917.847,95.437,540.449,538.974,0.0
52649.0,STARLINK-3868,PAYLOAD,2024-05-16 21:21:25,15.08845322,0.0001143,53.2193,349.9101,88.626,271.4863,0.0011959,0.00018799,0.0,0 STARLINK-3868,1 52649U 22052BD  24137.88987798  .00018799  00000-0  11959-2 0  9999,2 52649  53.2193 349.9101 0001143  88.6260 271.4863 15.08845322111234,6917.864,95.437,540.52,538.938,0.0
52649.0,STARLINK-3868,PAYLOAD,2024-05-17 21:12:12,15.08854741,0.0001461,53.2174,345.448,66.9143,293.2003,0.0010123,0.00015866,0.0,0 STARLINK-3868,1 52649U 22052BD  24138.88347675  .00015866  00000-0  10123-2 0  9998,2 52649  53.2174 345.4480 0001461  66.9143 293.2003 15.08854741111756,6917.835,95.437,540.711,538.69,0.0
52649.0,STARLINK-3868,PAYLOAD,2024-05-18 13:06:03,15.08833199,0.000167,53.2135,342.4772,91.7678,268.3505,-0.00021792,-3.754e-05,0.0,0 STARLINK-3868,1 52649U 22052BD  24139.54587742 -.00003754  00000-0 -21792-3 0  9993,2 52649  53.2135 342.4772 0001670  91.7678 268.3505 15.08833199111850,6917.901,95.438,540.921,538.611,0.0
52649.0,STARLINK-3868,PAYLOAD,2024-05-18 22:38:22,15.08847602,0.0001229,53.2164,340.6913,103.4823,256.6306,0.00035757,5.409e-05,0.0,0 STARLINK-3868,1 52649U 22052BD  24139.94331554  .00005409  00000-0  35757-3 0  9998,2 52649  53.2164 340.6913 0001229 103.4823 256.6306 15.08847602111541,6917.857,95.437,540.572,538.872,0.0
52649.0,STARLINK-3868,PAYLOAD,2024-05-19 12:56:50,15.08840584,0.000132,53.2159,338.0168,113.4316,246.6815,0.00017293,2.465e-05,0.0,0 STARLINK-3868,1 52649U 22052BD  24140.53947694  .00002465  00000-0  17293-3 0  9997,2 52649  53.2159 338.0168 0001320 113.4316 246.6815 15.08840584111634,6917.879,95.438,540.657,538.83,0.0
52649.0,STARLINK-3868,PAYLOAD,2024-05-19 20:53:46,15.08832967,0.0001192,53.2164,336.5237,128.1559,231.954,1.0272e-05,-1.24e-06,0.0,0 STARLINK-3868,1 52649U 22052BD  24140.87068256 -.00000124  00000-0  10272-4 0  9994,2 52649  53.2164 336.5237 0001192 128.1559 231.9540 15.08832967112054,6917.902,95.438,540.592,538.942,0.0
52649.0,STARLINK-3868,PAYLOAD,2024-05-19 22:29:10,15.08828252,0.0001183,53.2164,336.2283,114.3839,245.7277,-8.6026e-05,-1.656e-05,0.0,0 STARLINK-3868,1 52649U 22052BD  24140.93692573 -.00001656  00000-0 -86026-4 0  9998,2 52649  53.2164 336.2283 0001183 114.3839 245.7277 15.08828252111691,6917.916,95.438,540.6,538.963,0.0
52649.0,STARLINK-3868,PAYLOAD,2024-05-20 19:09:11,15.08844949,0.0001295,53.2172,332.3639,72.3621,287.7512,0.00019342,2.792e-05,0.0,0 STARLINK-3868,1 52649U 22052BD  24141.79804535  .00002792  00000-0  19342-3 0  9992,2 52649  53.2172 332.3639 0001295  72.3621 287.7512 15.08844949112193,6917.865,95.437,540.626,538.834,0.0
52649.0,STARLINK-3868,PAYLOAD,2024-05-21 18:59:58,15.08841323,0.0001203,53.2166,327.9022,117.8255,242.286,0.00021334,3.109e-05,0.0,0 STARLINK-3868,1 52649U 22052BD  24142.79164436  .00003109  00000-0  21334-3 0  9999,2 52649  53.2166 327.9022 0001203 117.8255 242.2860 15.08841323112341,6917.876,95.437,540.574,538.909,0.0
52649.0,STARLINK-3868,PAYLOAD,2024-05-21 22:10:44,15.08841734,0.0001246,53.2167,327.3082,118.2563,241.8555,0.00020889,3.038e-05,0.0,0 STARLINK-3868,1 52649U 22052BD  24142.92412422  .00003038  00000-0  20889-3 0  9990,2 52649  53.2167 327.3082 0001246 118.2563 241.8555 15.08841734111998,6917.875,95.437,540.602,538.878,0.0
52649.0,STARLINK-3868,PAYLOAD,2024-05-22 22:01:31,15.08840554,0.0001118,53.2168,322.8476,107.3137,252.7978,-9.622e-06,-4.41e-06,0.0,0 STARLINK-3868,1 52649U 22052BD  24143.91772440 -.00000441  00000-0 -96220-5 0  9990,2 52649  53.2168 322.8476 0001118 107.3137 252.7978 15.08840554112518,6917.879,95.438,540.517,538.97,0.0
52649.0,STARLINK-3868,PAYLOAD,2024-05-23 12:20:00,15.08836019,0.0001068,53.2183,320.1712,87.8398,272.2716,5.6021e-05,6.04e-06,0.0,0 STARLINK-3868,1 52649U 22052BD  24144.51388900  .00000604  00000-0  56021-4 0  9994,2 52649  53.2183 320.1712 0001068  87.8398 272.2716 15.08836019112231,6917.893,95.438,540.496,539.019,0.0
52649.0,STARLINK-3868,PAYLOAD,2024-05-23 18:41:32,15.08834497,0.0001106,53.2182,318.9819,83.5084,276.6034,3.4146e-05,2.56e-06,0.0,0 STARLINK-3868,1 52649U 22052BD  24144.77885095  .00000256  00000-0  34146-4 0  9996,2 52649  53.2182 318.9819 0001106  83.5084 276.6034 15.08834497112645,6917.897,95.438,540.527,538.997,0.0
52649.0,STARLINK-3868,PAYLOAD,2024-05-24 16:56:56,15.08835737,9.86e-05,53.2169,314.8209,77.1096,283.0006,4.2828e-05,3.94e-06,0.0,0 STARLINK-3868,1 52649U 22052BD  24145.70621261  .00000394  00000-0  42828-4 0  9992,2 52649  53.2169 314.8209 0000986  77.1096 283.0006 15.08835737112419,6917.893,95.438,540.441,539.076,0.0
52649.0,STARLINK-3868,PAYLOAD,2024-05-25 19:58:30,15.08830444,9.97e-05,53.2173,309.7659,80.9138,279.1967,0.00010868,1.442e-05,0.0,0 STARLINK-3868,1 52649U 22052BD  24146.83229806  .00001442  00000-0  10868-3 0  9999,2 52649  53.2173 309.7659 0000997  80.9138 279.1967 15.08830444112958,6917.91,95.438,540.464,539.085,0.0
52649.0,STARLINK-3868,PAYLOAD,2024-05-26 15:03:07,15.08839198,8.95e-05,53.216,306.2005,74.1454,285.9637,8.1419e-05,1.008e-05,0.0,0 STARLINK-3868,1 52649U 22052BD  24147.62717365  .00001008  00000-0  81419-4 0  9998,2 52649  53.2160 306.2005 0000895  74.1454 285.9637 15.08839198112701,6917.883,95.438,540.367,539.129,0.0
52649.0,STARLINK-3868,PAYLOAD,2024-05-26 19:49:16,15.08849724,9.01e-05,53.2167,305.3071,98.3283,261.7811,0.00016393,2.323e-05,0.0,0 STARLINK-3868,1 52649U 22052BD  24147.82588348  .00002323  00000-0  16393-3 0  9996,2 52649  53.2167 305.3071 0000901  98.3283 261.7811 15.08849724113104,6917.851,95.437,540.339,539.092,0.0
52649.0,STARLINK-3868,PAYLOAD,2024-05-27 14:53:54,15.08841324,0.0001172,53.2185,301.7325,73.5382,286.5739,9.3906e-05,1.207e-05,0.0,0 STARLINK-3868,1 52649U 22052BD  24148.62076922  .00001207  00000-0  93906-4 0  9991,2 52649  53.2185 301.7325 0001172  73.5382 286.5739 15.08841324112855,6917.876,95.437,540.552,538.931,0.0
52649.0,STARLINK-3868,PAYLOAD,2024-05-27 16:29:17,15.08841536,0.0001174,53.2185,301.4351,73.6282,286.4839,9.4719e-05,1.22e-05,0.0,0 STARLINK-3868,1 52649U 22052BD  24148.68700908  .00001220  00000-0  94719-4 0  9993,2 52649  53.2185 301.4351 0001174  73.6282 286.4839 15.08841536113231,6917.876,95.437,540.553,538.929,0.0
52649.0,STARLINK-3868,PAYLOAD,2024-05-28 14:44:41,15.08844453,9.48e-05,53.2173,297.2744,100.6982,259.4117,-4.1619e-05,-9.5e-06,0.0,0 STARLINK-3868,1 52649U 22052BD  24149.61436833 -.00000950  00000-0 -41619-4 0  9992,2 52649  53.2173 297.2744 0000948 100.6982 259.4117 15.08844453113007,6917.867,95.437,540.388,539.076,0.0
52649.0,STARLINK-3868,PAYLOAD,2024-05-28 16:20:04,15.08844121,9.37e-05,53.2175,296.9771,103.6897,256.4199,-4.6166e-05,-1.022e-05,0.0,0 STARLINK-3868,1 52649U 22052BD  24149.68060825 -.00001022  00000-0 -46166-4 0  9996,2 52649  53.2175 296.9771 0000937 103.6897 256.4199 15.08844121113011,6917.868,95.437,540.381,539.085,0.0
52649.0,STARLINK-3868,PAYLOAD,2024-05-29 13:00:05,15.08836224,8.98e-05,53.2172,293.1119,92.7898,267.3197,-1.0794e-06,-3.05e-06,0.0,0 STARLINK-3868,1 52649U 22052BD  24150.54173131 -.00000305  00000-0 -10794-5 0  9990,2 52649  53.2172 293.1119 0000898  92.7898 267.3197 15.08836224113517,6917.892,95.438,540.378,539.136,0.0
52649.0,STARLINK-3868,PAYLOAD,2024-05-29 14:35:28,15.0883706,9.31e-05,53.2173,292.8149,85.644,274.4659,3.5547e-06,-2.31e-06,0.0,0 STARLINK-3868,1 52649U 22052BD  24150.60797102 -.00000231  00000-0  35547-5 0  9997,2 52649  53.2173 292.8149 0000931  85.6440 274.4659 15.08837060113150,6917.889,95.438,540.398,539.11,0.0
52649.0,STARLINK-3868,PAYLOAD,2024-05-29 19:21:38,15.08838589,0.0001005,53.2178,291.9232,99.0457,261.0649,1.5706e-05,-3.8e-07,0.0,0 STARLINK-3868,1 52649U 22052BD  24150.80668988 -.00000038  00000-0  15706-4 0  9997,2 52649  53.2178 291.9232 0001005  99.0457 261.0649 15.08838589113189,6917.885,95.438,540.445,539.054,0.0
52649.0,STARLINK-3868,PAYLOAD,2024-05-30 14:26:15,15.08837973,0.0001035,53.2179,288.3557,99.9563,260.1546,7.1102e-05,8.44e-06,0.0,0 STARLINK-3868,1 52649U 22052BD  24151.60156947  .00000844  00000-0  71102-4 0  9999,2 52649  53.2179 288.3557 0001035  99.9563 260.1546 15.08837973113306,6917.887,95.438,540.468,539.036,0.0
52649.0,STARLINK-3868,PAYLOAD,2024-05-30 16:01:38,15.08839389,0.0001062,53.2178,288.0582,102.3807,257.7304,8.2725e-05,1.029e-05,0.0,0 STARLINK-3868,1 52649U 22052BD  24151.66780826  .00001029  00000-0  82725-4 0  9993,2 52649  53.2178 288.0582 0001062 102.3807 257.7304 15.08839389113688,6917.882,95.438,540.482,539.013,0.0
52649.0,STARLINK-3868,PAYLOAD,2024-05-31 14:17:02,15.08840274,0.0001103,53.218,283.8951,106.9221,253.1892,6.2248e-05,7.03e-06,0.0,0 STARLINK-3868,1 52649U 22052BD  24152.59516849  .00000703  00000-0  62248-4 0  9994,2 52649  53.2180 283.8951 0001103 106.9221 253.1892 15.08840274113452,6917.88,95.438,540.508,538.982,0.0
52649.0,STARLINK-3868,PAYLOAD,2024-06-01 12:32:27,15.0883421,0.0001179,53.2185,279.7376,99.761,260.3515,-2.3992e-05,-6.7e-06,0.0,0 STARLINK-3868,1 52649U 22052BD  24153.52253778 -.00000670  00000-0 -23992-4 0  9995,2 52649  53.2185 279.7376 0001179  99.7610 260.3515 15.08834210113967,6917.898,95.438,540.579,538.947,0.0
52649.0,STARLINK-3868,PAYLOAD,2024-06-01 14:07:50,15.08833514,0.0001155,53.2187,279.4404,99.2794,260.8329,-3.0259e-05,-7.69e-06,0.0,0 STARLINK-3868,1 52649U 22052BD  24153.58877863 -.00000769  00000-0 -30259-4 0  9991,2 52649  53.2187 279.4404 0001155  99.2794 260.8329 15.08833514113605,6917.9,95.438,540.564,538.966,0.0
